NORAD_CAT_ID,OBJECT_NAME,OBJECT_TYPE,EPOCH,MEAN_MOTION,ECCENTRICITY,INCLINATION,RA_OF_ASC_NODE,ARG_OF_PERICENTER,MEAN_ANOMALY,BSTAR,MEAN_MOTION_DOT,MEAN_MOTION_DDOT,TLE_LINE0,TLE_LINE1,TLE_LINE2,SEMIMAJOR_AXIS,PERIOD,APOGEE,PERIGEE,DECAYED
54199.0,STARLINK-5244,PAYLOAD,2022-11-03 16:00:00,15.88037476,0.001912,53.2174,111.4043,198.7971,121.9091,-0.004846,-0.01364771,0.00051871,0 STARLINK-5244,1 54199U 22141AU  22307.66667824 -.01364771  51871-3 -48460-2 0  9997,2 54199  53.2174 111.4043 0019120 198.7971 121.9091 15.88037476  1307,6685.9230000000025,90.678,320.571,295.004,0.0
54199.0,STARLINK-5244,PAYLOAD,2022-11-03 22:00:00,15.87362463,0.0016521,53.2174,110.1416,205.6757,104.7966,-0.0048715,-0.01321808,0.0004863,0 STARLINK-5244,1 54199U 22141AU  22307.91667824 -.01321808  48630-3 -48715-2 0  9991,2 54199  53.2174 110.1416 0016521 205.6757 104.7966 15.87362463  1305,6687.818,90.717,320.732,298.634,0.0
54199.0,STARLINK-5244,PAYLOAD,2022-11-04 06:00:00,15.86518314,0.0013655999999999,53.2176,108.4559,213.9074,201.9854,-0.0052633,-0.01201779,0.0,0 STARLINK-5244,1 54199U 22141AU  22308.25001157 -.01201779  00000-0 -52633-2 0  9994,2 54199  53.2176 108.4559 0013656 213.9074 201.9854 15.86518314  1397,6690.19,90.765,321.191,302.9190000000001,0.0
54199.0,STARLINK-5244,PAYLOAD,2022-11-04 14:00:01,15.8562562,0.0011007,53.2176,106.7753,225.438,294.8492,-0.0053013,-0.0115926,0.0,0 STARLINK-5244,1 54199U 22141AU  22308.58334491 -.01159260  00000-0 -53013-2 0  9990,2 54199  53.2176 106.7753 0011007 225.4380 294.8492 15.85625620  1308,6692.701,90.816,321.932,307.199,0.0
54199.0,STARLINK-5244,PAYLOAD,2022-11-04 22:00:01,15.84763068,0.0008842,53.2173,105.0977,250.8722,12.8211,-0.0055799,-0.01187316,0.0,0 STARLINK-5244,1 54199U 22141AU  22308.91668981 -.01187316  00000-0 -55799-2 0  9997,2 54199  53.2173 105.0977 0008842 250.8722  12.8211 15.84763068  1495,6695.129,90.865,322.914,311.074,0.0
54199.0,STARLINK-5244,PAYLOAD,2022-11-05 12:00:00,15.83232678,0.000572,53.2172,102.1624,267.9263,84.0493,-0.0059358,-0.01171482,0.0,0 STARLINK-5244,1 54199U 22141AU  22309.50001157 -.01171482  00000-0 -59358-2 0  9991,2 54199  53.2172 102.1624 0005720 267.9263  84.0493 15.83232678  1593,6699.443,90.953,325.14,317.476,0.0
54199.0,STARLINK-5244,PAYLOAD,2022-11-05 14:00:01,15.83050467,0.0004846,53.2174,101.7446,270.6032,196.6405,-0.0062985,-0.01224784,0.0,0 STARLINK-5244,1 54199U 22141AU  22309.58335648 -.01224784  00000-0 -62985-2 0  9998,2 54199  53.2174 101.7446 0004846 270.6032 196.6405 15.83050467  1301,6699.956999999999,90.964,325.069,318.575,0.0
54199.0,STARLINK-5244,PAYLOAD,2022-11-05 20:00:01,15.82397727,0.0002412,53.2177,100.4914,274.5968,177.8389,-0.0064783,-0.01219806,0.0,0 STARLINK-5244,1 54199U 22141AU  22309.83334491 -.01219806  00000-0 -64783-2 0  9998,2 54199  53.2177 100.4914 0002412 274.5968 177.8389 15.82397727  1649,6701.799,91.001,325.281,322.048,0.0
54199.0,STARLINK-5244,PAYLOAD,2022-11-05 22:00:01,15.82203651,0.0005496,53.217,100.0735,271.0598,296.3838,-0.0066754999999999,-0.01244986,0.0,0 STARLINK-5244,1 54199U 22141AU  22309.91668981 -.01244986  00000-0 -66755-2 0  9999,2 54199  53.2170 100.0735 0005496 271.0598 296.3838 15.82203651  1306,6702.347,91.012,327.896,320.529,0.0
54199.0,STARLINK-5244,PAYLOAD,2022-11-06 14:00:01,15.80452242,0.0001327,53.2171,96.7333,40.9382,3.7485,-0.0071342,-0.01224795,0.0,0 STARLINK-5244,1 54199U 22141AU  22310.58334491 -.01224795  00000-0 -71342-2 0  9994,2 54199  53.2171  96.7333 0001327  40.9382   3.7485 15.80452242  1303,6707.2980000000025,91.113,330.05300000000005,328.273,0.0
54199.0,STARLINK-5244,PAYLOAD,2022-11-06 22:00:00,15.79558544,0.0001405,53.2168,95.0687,45.8613,95.9206,-0.0071847,-0.01188151,0.0,0 STARLINK-5244,1 54199U 22141AU  22310.91667824 -.01188151  00000-0 -71847-2 0  9995,2 54199  53.2168  95.0687 0001405  45.8613  95.9206 15.79558544  1811,6709.828,91.165,332.635,330.75,0.0
54199.0,STARLINK-5244,PAYLOAD,2022-11-07 14:00:01,15.77845242,0.0001286,53.2174,91.7412,44.5829,288.2305,-0.0079938,-0.01218565,0.0,0 STARLINK-5244,1 54199U 22141AU  22311.58334491 -.01218565  00000-0 -79938-2 0  9992,2 54199  53.2174  91.7412 0001286  44.5829 288.2305 15.77845242  1920,6714.684,91.264,337.412,335.685,0.0
54199.0,STARLINK-5244,PAYLOAD,2022-11-07 22:00:00,15.76960988,0.0001437,53.2171,90.0821,36.0485,30.7279,-0.0081423,-0.01195711,0.0,0 STARLINK-5244,1 54199U 22141AU  22311.91667824 -.01195711  00000-0 -81423-2 0  9997,2 54199  53.2171  90.0821 0001437  36.0485  30.7279 15.76960988  1301,6717.194,91.315,340.024,338.093,0.0
54199.0,STARLINK-5244,PAYLOAD,2022-11-08 10:00:01,15.75657688,0.0001411,53.2174,87.5946,36.3146,349.50699999999995,-0.0086085,-0.01193134,0.0,0 STARLINK-5244,1 54199U 22141AU  22312.41668981 -.01193134  00000-0 -86085-2 0  9994,2 54199  53.2174  87.5946 0001411  36.3146 349.5070 15.75657688  2054,6720.897,91.39,343.711,341.814,0.0
54199.0,STARLINK-5244,PAYLOAD,2022-11-08 14:00:01,15.75237672,0.0001296,53.2172,86.7684,44.0719,207.4812,-0.0089225,-0.01211458,0.0,0 STARLINK-5244,1 54199U 22141AU  22312.58334491 -.01211458  00000-0 -89225-2 0  9997,2 54199  53.2172  86.7684 0001296  44.0719 207.4812 15.75237672  1305,6722.092,91.415,344.82800000000015,343.086,0.0
54199.0,STARLINK-5244,PAYLOAD,2022-11-08 22:00:00,15.74322792,0.0001634,53.2168,85.1161,23.4068,318.9723,-0.0081369,-0.01076701,0.0,0 STARLINK-5244,1 54199U 22141AU  22312.91667824 -.01076701  00000-0 -81369-2 0  9994,2 54199  53.2168  85.1161 0001634  23.4068 318.9723 15.74322792  1303,6724.696,91.468,347.66,345.462,0.0
54199.0,STARLINK-5244,PAYLOAD,2022-11-09 04:00:00,15.73575846,0.0001551,53.2175,83.8752,32.952,286.8844,-0.0036025,-0.00485897,0.0,0 STARLINK-5244,1 54199U 22141AU  22313.16667824 -.00485897  00000-0 -36025-2 0  9990,2 54199  53.2175  83.8752 0001551  32.9520 286.8844 15.73575846  2170,6726.824000000001,91.511,349.732,347.646,0.0
54199.0,STARLINK-5244,PAYLOAD,2022-11-09 12:00:00,15.73265279,0.0001725,53.2174,82.2285,34.3935,14.5692,-0.00012209,-0.00017768,0.0,0 STARLINK-5244,1 54199U 22141AU  22313.50001157 -.00017768  00000-0 -12209-3 0  9996,2 54199  53.2174  82.2285 0001725  34.3935  14.5692 15.73265279  2221,6727.709,91.529,350.735,348.414,0.0
54199.0,STARLINK-5244,PAYLOAD,2022-11-09 14:00:01,15.73281336,0.0001809,53.217,81.8166,32.3935,128.8126,-0.00035041,-0.00049683,0.0,0 STARLINK-5244,1 54199U 22141AU  22313.58334491 -.00049683  00000-0 -35041-3 0  9994,2 54199  53.2170  81.8166 0001809  32.3935 128.8126 15.73281336  1302,6727.663000000001,91.528,350.745,348.311,0.0
54199.0,STARLINK-5244,PAYLOAD,2022-11-09 22:00:01,15.73244845,0.0001885,53.2166,80.1673,28.0122,222.2437,-0.00033687,-0.00047725,0.0,0 STARLINK-5244,1 54199U 22141AU  22313.91668981 -.00047725  00000-0 -33687-3 0  9994,2 54199  53.2166  80.1673 0001885  28.0122 222.2437 15.73244845  1304,6727.767,91.531,350.901,348.36400000000015,0.0
54199.0,STARLINK-5244,PAYLOAD,2022-11-10 06:00:00,15.73203471,0.0001686999999999,53.2168,78.5161,32.8109,306.3502,-9.8647e-05,-0.00014444,0.0,0 STARLINK-5244,1 54199U 22141AU  22314.25001157 -.00014444  00000-0 -98647-4 0  9998,2 54199  53.2168  78.5161 0001687  32.8109 306.3502 15.73203471  2349,6727.885,91.533,350.885,348.615,0.0
54199.0,STARLINK-5244,PAYLOAD,2022-11-10 14:00:01,15.73187057,0.0001913,53.2171,76.8686,29.3536,38.7135,-0.00072532,-0.00101152,0.0,0 STARLINK-5244,1 54199U 22141AU  22314.58334491 -.00101152  00000-0 -72532-3 0  9991,2 54199  53.2171  76.8686 0001913  29.3536  38.7135 15.73187057  1307,6727.932,91.534,351.084,348.51,0.0
54199.0,STARLINK-5244,PAYLOAD,2022-11-10 20:00:01,15.73176442,0.0002149,53.2171,75.6321,28.8431,15.9288,0.00072909,0.00102864,0.0,0 STARLINK-5244,1 54199U 22141AU  22314.83334491  .00102864  00000-0  72909-3 0  9996,2 54199  53.2171  75.6321 0002149  28.8431  15.9288 15.73176442  2437,6727.962,91.535,351.273,348.38199999999995,0.0
54199.0,STARLINK-5244,PAYLOAD,2022-11-10 22:00:00,15.73228927,0.000209,53.2172,75.2193,29.5893,127.4022,7.4472e-05,9.856e-05,0.0,0 STARLINK-5244,1 54199U 22141AU  22314.91667824  .00009856  00000-0  74472-4 0  9999,2 54199  53.2172  75.2193 0002090  29.5893 127.4022 15.73228927  1302,6727.813,91.531,351.084,348.272,0.0
54199.0,STARLINK-5244,PAYLOAD,2022-11-11 06:00:00,15.73215934,0.0001963,53.2175,73.5679,30.9698,214.9978,7.6655e-05,0.00010158,0.0,0 STARLINK-5244,1 54199U 22141AU  22315.25001157  .00010158  00000-0  76655-4 0  9990,2 54199  53.2175  73.5679 0001963  30.9698 214.9978 15.73215934  2499,6727.85,91.532,351.035,348.394,0.0
54199.0,STARLINK-5244,PAYLOAD,2022-11-11 14:00:01,15.73178621,0.0002285,53.2175,71.9203,31.8497,303.058,0.00027014,0.00037428,0.0,0 STARLINK-5244,1 54199U 22141AU  22315.58334491  .00037428  00000-0  27014-3 0  9999,2 54199  53.2175  71.9203 0002285  31.8497 303.0580 15.73178621  2556,6727.956,91.534,351.358,348.284,0.0
54199.0,STARLINK-5244,PAYLOAD,2022-11-11 22:00:00,15.7327304,0.0002344,53.217,70.2708,28.8791,34.9464,-0.00042782,-0.0006042999999999,0.0,0 STARLINK-5244,1 54199U 22141AU  22315.91667824 -.00060430  00000-0 -42782-3 0  9995,2 54199  53.2170  70.2708 0002344  28.8791  34.9464 15.73273040  1306,6727.687,91.529,351.129,347.975,0.0
54199.0,STARLINK-5244,PAYLOAD,2022-11-12 14:00:01,15.73217626,0.0002384,53.2173,66.9722,30.5976,211.1768,0.00032134,0.00044755,0.0,0 STARLINK-5244,1 54199U 22141AU  22316.58334491  .00044755  00000-0  32134-3 0  9990,2 54199  53.2173  66.9722 0002384  30.5976 211.1768 15.73217626  1300,6727.845,91.532,351.314,348.106,0.0
54199.0,STARLINK-5244,PAYLOAD,2022-11-12 22:00:00,15.73292399,0.000231,53.2174,65.3224,24.0265,306.7066,-0.0010427,-0.00145058,0.0,0 STARLINK-5244,1 54199U 22141AU  22316.91667824 -.00145058  00000-0 -10427-2 0  9996,2 54199  53.2174  65.3224 0002310  24.0265 306.7066 15.73292399  2762,6727.632,91.528,351.051,347.9430000000001,0.0
